[{"OBJECT_NAME":"STARLINK-34897","OBJECT_ID":"2025-176Q","EPOCH":"2026-03-09T12:48:58.027680","MEAN_MOTION":15.30186523,"ECCENTRICITY":0.0001153,"INCLINATION":53.1581,"RA_OF_ASC_NODE":153.667,"ARG_OF_PERICENTER":62.1896,"MEAN_ANOMALY":297.9221,"EPHEMERIS_TYPE":0,"CLASSIFICATION_TYPE":"U","NORAD_CAT_ID":65212,"ELEMENT_SET_NO":999,"REV_AT_EPOCH":3309,"BSTAR":0.0010109101,"MEAN_MOTION_DOT":0.00029688,"MEAN_MOTION_DDOT":0},{"OBJECT_NAME":"KUIPER-00180","OBJECT_ID":"2026-030E","EPOCH":"2026-03-09T22:29:40.634304","MEAN_MOTION":15.31865817,"ECCENTRICITY":0.00157227,"INCLINATION":51.8823,"RA_OF_ASC_NODE":218.464,"ARG_OF_PERICENTER":75.5448,"MEAN_ANOMALY":284.728,"EPHEMERIS_TYPE":0,"CLASSIFICATION_TYPE":"U","NORAD_CAT_ID":67768,"ELEMENT_SET_NO":999,"REV_AT_EPOCH":512,"BSTAR":0.011360708,"MEAN_MOTION_DOT":0.00373574,"MEAN_MOTION_DDOT":0}]
